SKYSAT-A                
1 39418U 13066C   26061.68814873  .00004664  00000+0  27182-3 0  9993
2 39418  97.3969 114.4489 0020675 326.0818  33.9089 15.12289691672381
SKYSAT-B                
1 40072U 14037D   26061.80195417  .00002459  00000+0  27660-3 0  9991
2 40072  98.3716  14.8050 0004178 263.0279  97.0460 14.87691447630147
SKYSAT-C1               
1 41601U 16040C   26061.65780184  .00011035  00000+0  33393-3 0  9990
2 41601  96.9710  99.2133 0004037  67.4895 292.6776 15.34337075541520
SKYSAT-C4               
1 41771U 16058B   26061.59675854  .00018797  00000+0  39901-3 0  9990
2 41771  96.9292  88.0224 0000935  75.8539 284.2815 15.45075178528993
SKYSAT-C5               
1 41772U 16058C   26061.58584760  .00010154  00000+0  30963-3 0  9993
2 41772  97.0630 106.9569 0001925  85.5775 274.5688 15.34125336527409
SKYSAT-C2               
1 41773U 16058D   26061.62384549  .00014218  00000+0  36418-3 0  9998
2 41773  97.0285  87.8558 0005376  83.9934 276.1925 15.39471988528645
SKYSAT-C3               
1 41774U 16058E   26061.57730928  .00023380  00000+0  44922-3 0  9998
2 41774  96.9188  96.7509 0001539 101.8501 258.2923 15.47941787529590
SKYSAT-C11              
1 42987U 17068A   26061.62504208  .00032172  00000+0  53745-3 0  9995
2 42987  97.4184 206.3788 0000772  88.2492 271.8849 15.51873572466681
SKYSAT-C10              
1 42988U 17068B   26061.61502054  .00012945  00000+0  41514-3 0  9999
2 42988  97.4321 197.6950 0001182  90.8311 269.3066 15.32470276466027
SKYSAT-C9               
1 42989U 17068C   26061.62479956  .00018049  00000+0  47434-3 0  9993
2 42989  97.4246 197.6820 0009646 156.0688 204.1007 15.38608931466350
SKYSAT-C8               
1 42990U 17068D   26061.60900712  .00014544  00000+0  43646-3 0  9999
2 42990  97.4344 197.1032 0001268 106.9595 253.1787 15.34558761465959
SKYSAT-C7               
1 42991U 17068E   26061.59885859  .00014951  00000+0  44921-3 0  9991
2 42991  97.4351 198.0754 0007385 125.6485 234.5447 15.34489067466017
SKYSAT-C6               
1 42992U 17068F   26061.65074517  .00013849  00000+0  44292-3 0  9996
2 42992  97.4386 198.4322 0003531 129.4456 230.7098 15.32537296465992
SKYSAT-C12              
1 43797U 18099AR  26061.63622706  .00019032  00000+0  40076-3 0  9998
2 43797  96.9382  89.3560 0004813 156.2058 203.9415 15.45297388405389
SKYSAT-C13              
1 43802U 18099AW  26061.68062816  .00087730  00000+0  57950-3 0  9999
2 43802  96.9425 109.3063 0003175 228.7580 131.3413 15.75326311406060
FLOCK 4Q-16             
1 58271U 23174R   26061.82352765  .00030775  00000+0  66683-3 0  9996
2 58271  97.3878 147.8395 0007887 180.0261 180.0988 15.44347296129137
FLOCK 4Q-11             
1 58273U 23174T   26061.76770462  .00028300  00000+0  60611-3 0  9995
2 58273  97.3917 148.2556 0007597 177.1580 182.9713 15.44710825129135
